IRIDIUM 151             
1 43074U 17083E   26064.27258246  .00000059  00000+0  14042-4 0  9999
2 43074  86.4019   5.4802 0002164  86.6066 273.5377 14.34218126429249
IRIDIUM 134             
1 43075U 17083F   26064.58971152  .00000452  00000+0  15426-3 0  9995
2 43075  86.4023   5.3544 0002021  84.8346 275.3080 14.34218272429254
IRIDIUM 137             
1 43076U 17083G   26064.18378700 -.00000017  00000+0 -13227-4 0  9999
2 43076  86.4013   5.6145 0002224  97.2414 262.9034 14.34217460429263
IRIDIUM 141             
1 43077U 17083H   26064.52629396  .00000397  00000+0  13468-3 0  9993
2 43077  86.4017   5.3081 0002216  82.6584 277.4864 14.34221822429316
IRIDIUM 153             
1 43078U 17083J   26064.19939052  .00000079  00000+0  21089-4 0  9996
2 43078  86.4017 333.9591 0002123  80.0236 280.1200 14.34218237430375
IRIDIUM 131             
1 43079U 17083K   26064.16475911  .00000409  00000+0  13888-3 0  9997
2 43079  86.4023   5.6380 0002308  85.1310 275.0150 14.34218291429191
IRIDIUM 144             
1 43249U 18030A   26064.48480803  .00000101  00000+0  29061-4 0  9990
2 43249  86.4015 333.7711 0002053  88.2819 271.8612 14.34218016415275
IRIDIUM 149             
1 43250U 18030B   26064.21207643  .00000019  00000+0 -41550-6 0  9990
2 43250  86.4008 333.8529 0002066  82.7041 277.4390 14.34217672415257
IRIDIUM 157             
1 43251U 18030C   26064.23110415  .00000023  00000+0  11446-5 0  9997
2 43251  86.4006 333.8953 0002204  85.4704 274.6744 14.34217775415231
IRIDIUM 140             
1 43252U 18030D   26064.25013201  .00000050  00000+0  10635-4 0  9993
2 43252  86.4015 333.9008 0002022  84.2757 275.8669 14.34217823415296
IRIDIUM 145             
1 43253U 18030E   26064.44674818  .00000337  00000+0  11334-3 0  9996
2 43253  86.4015 333.7913 0001889  93.1007 267.0405 14.34220266415259
IRIDIUM 146             
1 43254U 18030F   26064.21841769  .00000146  00000+0  45250-4 0  9996
2 43254  86.4015 333.8991 0002086  89.3582 270.7852 14.34218722415231
IRIDIUM 148             
1 43255U 18030G   26064.46578028  .00000282  00000+0  93570-4 0  9998
2 43255  86.4016 333.8373 0002184  86.5667 273.5778 14.34218204415300
IRIDIUM 142             
1 43256U 18030H   26064.50383503  .00000012  00000+0 -28360-5 0  9994
2 43256  86.4006 333.7141 0001832  92.9213 267.2192 14.34217707415272
IRIDIUM 150             
1 43257U 18030J   26064.47212236  .00000080  00000+0  21453-4 0  9994
2 43257  86.4015 333.8404 0002075  85.9233 274.2200 14.34217381415298
IRIDIUM 143             
1 43258U 18030K   26064.24378889  .00000015  00000+0 -18399-5 0  9992
2 43258  86.4014 334.0240 0001887  89.7765 270.3647 14.34217769415192
IRIDIUM 161             
1 43478U 18047C   26064.58871672  .00000461  00000+0  13117-3 0  9994
2 43478  86.4507 131.7965 0002536  91.9005 268.2487 14.43284858410199
